{
  "type": "FeatureCollection",
  "features": [
    {
      "type": "Feature",
      "geometry": {
        "type": "LineString",
        "coordinates": [
          [
            8.6753,
            9.082
          ],
          [
            15,
            60
          ]
        ]
      },
      "properties": {
        "start_name": "Nigeria",
        "end_name": "Northern Europe",
        "jump_weight": 235.41798365122617,
        "start_lon": 8.6753,
        "start_lat": 9.082,
        "end_lon": 15,
        "end_lat": 60,
        "bayes_factor": 107501.41794142839
      }
    },
    {
      "type": "Feature",
      "geometry": {
        "type": "LineString",
        "coordinates": [
          [
            8.6753,
            9.082
          ],
          [
            2,
            49
          ]
        ]
      },
      "properties": {
        "start_name": "Nigeria",
        "end_name": "Western Europe",
        "jump_weight": 29.561035422343323,
        "start_lon": 8.6753,
        "start_lat": 9.082,
        "end_lon": 2,
        "end_lat": 49,
        "bayes_factor": 195.19009329479636
      }
    },
    {
      "type": "Feature",
      "geometry": {
        "type": "LineString",
        "coordinates": [
          [
            8.6753,
            9.082
          ],
          [
            2.3158,
            9.3077
          ]
        ]
      },
      "properties": {
        "start_name": "Nigeria",
        "end_name": "Benin",
        "jump_weight": 67.50626702997275,
        "start_lon": 8.6753,
        "start_lat": 9.082,
        "end_lon": 2.3158,
        "end_lat": 9.3077,
        "bayes_factor": 107501.41794142839
      }
    },
    {
      "type": "Feature",
      "geometry": {
        "type": "LineString",
        "coordinates": [
          [
            2.3158,
            9.3077
          ],
          [
            15,
            60
          ]
        ]
      },
      "properties": {
        "start_name": "Benin",
        "end_name": "Northern Europe",
        "jump_weight": 21.23215258855586,
        "start_lon": 2.3158,
        "start_lat": 9.3077,
        "end_lon": 15,
        "end_lat": 60,
        "bayes_factor": 824.1184726264038
      }
    },
    {
      "type": "Feature",
      "geometry": {
        "type": "LineString",
        "coordinates": [
          [
            15,
            60
          ],
          [
            20,
            -2
          ]
        ]
      },
      "properties": {
        "start_name": "Northern Europe",
        "end_name": "Middle Africa",
        "jump_weight": 16.609536784741145,
        "start_lon": 15,
        "start_lat": 60,
        "end_lon": 20,
        "end_lat": -2,
        "bayes_factor": 15332.23120038093
      }
    },
    {
      "type": "Feature",
      "geometry": {
        "type": "LineString",
        "coordinates": [
          [
            8.6753,
            9.082
          ],
          [
            -5.5471,
            7.54
          ]
        ]
      },
      "properties": {
        "start_name": "Nigeria",
        "end_name": "Ivory Coast",
        "jump_weight": 40.95013623978202,
        "start_lon": 8.6753,
        "start_lat": 9.082,
        "end_lon": -5.5471,
        "end_lat": 7.54,
        "bayes_factor": 107501.41794142839
      }
    },
    {
      "type": "Feature",
      "geometry": {
        "type": "LineString",
        "coordinates": [
          [
            15,
            60
          ],
          [
            -1.0232,
            7.9465
          ]
        ]
      },
      "properties": {
        "start_name": "Northern Europe",
        "end_name": "Ghana",
        "jump_weight": 31.19182561307902,
        "start_lon": 15,
        "start_lat": 60,
        "end_lon": -1.0232,
        "end_lat": 7.9465,
        "bayes_factor": 107501.41794142839
      }
    },
    {
      "type": "Feature",
      "geometry": {
        "type": "LineString",
        "coordinates": [
          [
            15,
            60
          ],
          [
            2,
            49
          ]
        ]
      },
      "properties": {
        "start_name": "Northern Europe",
        "end_name": "Western Europe",
        "jump_weight": 149.61662125340598,
        "start_lon": 15,
        "start_lat": 60,
        "end_lon": 2,
        "end_lat": 49,
        "bayes_factor": 107501.41794142839
      }
    },
    {
      "type": "Feature",
      "geometry": {
        "type": "LineString",
        "coordinates": [
          [
            15,
            60
          ],
          [
            15,
            42
          ]
        ]
      },
      "properties": {
        "start_name": "Northern Europe",
        "end_name": "Southern Europe",
        "jump_weight": 62.8708446866485,
        "start_lon": 15,
        "start_lat": 60,
        "end_lon": 15,
        "end_lat": 42,
        "bayes_factor": 107501.41794142839
      }
    },
    {
      "type": "Feature",
      "geometry": {
        "type": "LineString",
        "coordinates": [
          [
            15,
            60
          ],
          [
            -14.4524,
            14.4974
          ]
        ]
      },
      "properties": {
        "start_name": "Northern Europe",
        "end_name": "Senegal",
        "jump_weight": 37.32125340599455,
        "start_lon": 15,
        "start_lat": 60,
        "end_lon": -14.4524,
        "end_lat": 14.4974,
        "bayes_factor": 107501.41794142839
      }
    },
    {
      "type": "Feature",
      "geometry": {
        "type": "LineString",
        "coordinates": [
          [
            8.6753,
            9.082
          ],
          [
            8.0817,
            17.6078
          ]
        ]
      },
      "properties": {
        "start_name": "Nigeria",
        "end_name": "Niger",
        "jump_weight": 13.709809264305177,
        "start_lon": 8.6753,
        "start_lat": 9.082,
        "end_lon": 8.0817,
        "end_lat": 17.6078,
        "bayes_factor": 107501.41794142839
      }
    },
    {
      "type": "Feature",
      "geometry": {
        "type": "LineString",
        "coordinates": [
          [
            15,
            60
          ],
          [
            -100,
            45
          ]
        ]
      },
      "properties": {
        "start_name": "Northern Europe",
        "end_name": "Northern America",
        "jump_weight": 92.2683923705722,
        "start_lon": 15,
        "start_lat": 60,
        "end_lon": -100,
        "end_lat": 45,
        "bayes_factor": 107501.41794142839
      }
    },
    {
      "type": "Feature",
      "geometry": {
        "type": "LineString",
        "coordinates": [
          [
            15,
            60
          ],
          [
            55,
            25
          ]
        ]
      },
      "properties": {
        "start_name": "Northern Europe",
        "end_name": "Western Asia",
        "jump_weight": 19.73732970027248,
        "start_lon": 15,
        "start_lat": 60,
        "end_lon": 55,
        "end_lat": 25,
        "bayes_factor": 5347.235970102774
      }
    },
    {
      "type": "Feature",
      "geometry": {
        "type": "LineString",
        "coordinates": [
          [
            15,
            60
          ],
          [
            31,
            30
          ]
        ]
      },
      "properties": {
        "start_name": "Northern Europe",
        "end_name": "Northern Africa",
        "jump_weight": 38.20653950953678,
        "start_lon": 15,
        "start_lat": 60,
        "end_lon": 31,
        "end_lat": 30,
        "bayes_factor": 107501.41794142839
      }
    },
    {
      "type": "Feature",
      "geometry": {
        "type": "LineString",
        "coordinates": [
          [
            8.6753,
            9.082
          ],
          [
            37.2972,
            -1.9577
          ]
        ]
      },
      "properties": {
        "start_name": "Nigeria",
        "end_name": "Eastern Africa",
        "jump_weight": 33.13651226158038,
        "start_lon": 8.6753,
        "start_lat": 9.082,
        "end_lon": 37.2972,
        "end_lat": -1.9577,
        "bayes_factor": 107501.41794142839
      }
    },
    {
      "type": "Feature",
      "geometry": {
        "type": "LineString",
        "coordinates": [
          [
            8.6753,
            9.082
          ],
          [
            -100,
            45
          ]
        ]
      },
      "properties": {
        "start_name": "Nigeria",
        "end_name": "Northern America",
        "jump_weight": 59.78964577656676,
        "start_lon": 8.6753,
        "start_lat": 9.082,
        "end_lon": -100,
        "end_lat": 45,
        "bayes_factor": 107501.41794142839
      }
    },
    {
      "type": "Feature",
      "geometry": {
        "type": "LineString",
        "coordinates": [
          [
            -100,
            45
          ],
          [
            2,
            49
          ]
        ]
      },
      "properties": {
        "start_name": "Northern America",
        "end_name": "Western Europe",
        "jump_weight": 17.37384196185286,
        "start_lon": -100,
        "start_lat": 45,
        "end_lon": 2,
        "end_lat": 49,
        "bayes_factor": 107501.41794142839
      }
    },
    {
      "type": "Feature",
      "geometry": {
        "type": "LineString",
        "coordinates": [
          [
            15,
            60
          ],
          [
            80,
            20
          ]
        ]
      },
      "properties": {
        "start_name": "Northern Europe",
        "end_name": "Southern Asia",
        "jump_weight": 20.252043596730246,
        "start_lon": 15,
        "start_lat": 60,
        "end_lon": 80,
        "end_lat": 20,
        "bayes_factor": 107501.41794142839
      }
    },
    {
      "type": "Feature",
      "geometry": {
        "type": "LineString",
        "coordinates": [
          [
            15,
            42
          ],
          [
            2,
            49
          ]
        ]
      },
      "properties": {
        "start_name": "Southern Europe",
        "end_name": "Western Europe",
        "jump_weight": 17.375476839237056,
        "start_lon": 15,
        "start_lat": 42,
        "end_lon": 2,
        "end_lat": 49,
        "bayes_factor": 107501.41794142839
      }
    },
    {
      "type": "Feature",
      "geometry": {
        "type": "LineString",
        "coordinates": [
          [
            -5.5471,
            7.54
          ],
          [
            2,
            49
          ]
        ]
      },
      "properties": {
        "start_name": "Ivory Coast",
        "end_name": "Western Europe",
        "jump_weight": 18.904632152588555,
        "start_lon": -5.5471,
        "start_lat": 7.54,
        "end_lon": 2,
        "end_lat": 49,
        "bayes_factor": 107501.41794142839
      }
    },
    {
      "type": "Feature",
      "geometry": {
        "type": "LineString",
        "coordinates": [
          [
            2,
            49
          ],
          [
            15,
            42
          ]
        ]
      },
      "properties": {
        "start_name": "Western Europe",
        "end_name": "Southern Europe",
        "jump_weight": 41.967302452316076,
        "start_lon": 2,
        "start_lat": 49,
        "end_lon": 15,
        "end_lat": 42,
        "bayes_factor": 107501.41794142839
      }
    },
    {
      "type": "Feature",
      "geometry": {
        "type": "LineString",
        "coordinates": [
          [
            2,
            49
          ],
          [
            15,
            60
          ]
        ]
      },
      "properties": {
        "start_name": "Western Europe",
        "end_name": "Northern Europe",
        "jump_weight": 36.59782016348774,
        "start_lon": 2,
        "start_lat": 49,
        "end_lon": 15,
        "end_lat": 60,
        "bayes_factor": 107501.41794142839
      }
    },
    {
      "type": "Feature",
      "geometry": {
        "type": "LineString",
        "coordinates": [
          [
            8.6753,
            9.082
          ],
          [
            0.8248,
            8.6195
          ]
        ]
      },
      "properties": {
        "start_name": "Nigeria",
        "end_name": "Togo",
        "jump_weight": 21.69400544959128,
        "start_lon": 8.6753,
        "start_lat": 9.082,
        "end_lon": 0.8248,
        "end_lat": 8.6195,
        "bayes_factor": 1925.8040380494494
      }
    },
    {
      "type": "Feature",
      "geometry": {
        "type": "LineString",
        "coordinates": [
          [
            0.8248,
            8.6195
          ],
          [
            2,
            49
          ]
        ]
      },
      "properties": {
        "start_name": "Togo",
        "end_name": "Western Europe",
        "jump_weight": 9.333787465940054,
        "start_lon": 0.8248,
        "start_lat": 8.6195,
        "end_lon": 2,
        "end_lat": 49,
        "bayes_factor": 539.6456740429844
      }
    },
    {
      "type": "Feature",
      "geometry": {
        "type": "LineString",
        "coordinates": [
          [
            80,
            20
          ],
          [
            15,
            60
          ]
        ]
      },
      "properties": {
        "start_name": "Southern Asia",
        "end_name": "Northern Europe",
        "jump_weight": 22.607356948228883,
        "start_lon": 80,
        "start_lat": 20,
        "end_lon": 15,
        "end_lat": 60,
        "bayes_factor": 35814.27269838869
      }
    },
    {
      "type": "Feature",
      "geometry": {
        "type": "LineString",
        "coordinates": [
          [
            15,
            60
          ],
          [
            127,
            35
          ]
        ]
      },
      "properties": {
        "start_name": "Northern Europe",
        "end_name": "Eastern Asia",
        "jump_weight": 14.701634877384196,
        "start_lon": 15,
        "start_lat": 60,
        "end_lon": 127,
        "end_lat": 35,
        "bayes_factor": 170.571299672677
      }
    },
    {
      "type": "Feature",
      "geometry": {
        "type": "LineString",
        "coordinates": [
          [
            37.2972,
            -1.9577
          ],
          [
            15,
            60
          ]
        ]
      },
      "properties": {
        "start_name": "Eastern Africa",
        "end_name": "Northern Europe",
        "jump_weight": 18.045776566757493,
        "start_lon": 37.2972,
        "start_lat": -1.9577,
        "end_lon": 15,
        "end_lat": 60,
        "bayes_factor": 107501.41794142839
      }
    },
    {
      "type": "Feature",
      "geometry": {
        "type": "LineString",
        "coordinates": [
          [
            -14.4524,
            14.4974
          ],
          [
            2,
            49
          ]
        ]
      },
      "properties": {
        "start_name": "Senegal",
        "end_name": "Western Europe",
        "jump_weight": 21.72615803814714,
        "start_lon": -14.4524,
        "start_lat": 14.4974,
        "end_lon": 2,
        "end_lat": 49,
        "bayes_factor": 107501.41794142839
      }
    },
    {
      "type": "Feature",
      "geometry": {
        "type": "LineString",
        "coordinates": [
          [
            0.8248,
            8.6195
          ],
          [
            2.3158,
            9.3077
          ]
        ]
      },
      "properties": {
        "start_name": "Togo",
        "end_name": "Benin",
        "jump_weight": 8.003269754768393,
        "start_lon": 0.8248,
        "start_lat": 8.6195,
        "end_lon": 2.3158,
        "end_lat": 9.3077,
        "bayes_factor": 107501.41794142839
      }
    },
    {
      "type": "Feature",
      "geometry": {
        "type": "LineString",
        "coordinates": [
          [
            -100,
            45
          ],
          [
            -66,
            18
          ]
        ]
      },
      "properties": {
        "start_name": "Northern America",
        "end_name": "Caribbean",
        "jump_weight": 6.298092643051771,
        "start_lon": -100,
        "start_lat": 45,
        "end_lon": -66,
        "end_lat": 18,
        "bayes_factor": 107501.41794142839
      }
    },
    {
      "type": "Feature",
      "geometry": {
        "type": "LineString",
        "coordinates": [
          [
            80,
            20
          ],
          [
            2,
            49
          ]
        ]
      },
      "properties": {
        "start_name": "Southern Asia",
        "end_name": "Western Europe",
        "jump_weight": 9.727792915531335,
        "start_lon": 80,
        "start_lat": 20,
        "end_lon": 2,
        "end_lat": 49,
        "bayes_factor": 1102.602370187012
      }
    },
    {
      "type": "Feature",
      "geometry": {
        "type": "LineString",
        "coordinates": [
          [
            80,
            20
          ],
          [
            102,
            3
          ]
        ]
      },
      "properties": {
        "start_name": "Southern Asia",
        "end_name": "Southeastern Asia",
        "jump_weight": 10.995640326975478,
        "start_lon": 80,
        "start_lat": 20,
        "end_lon": 102,
        "end_lat": 3,
        "bayes_factor": 107501.41794142839
      }
    },
    {
      "type": "Feature",
      "geometry": {
        "type": "LineString",
        "coordinates": [
          [
            -100,
            45
          ],
          [
            -85.6024,
            12.769
          ]
        ]
      },
      "properties": {
        "start_name": "Northern America",
        "end_name": "Central America",
        "jump_weight": 0.9506811989100817,
        "start_lon": -100,
        "start_lat": 45,
        "end_lon": -85.6024,
        "end_lat": 12.769,
        "bayes_factor": 326.76205656002986
      }
    },
    {
      "type": "Feature",
      "geometry": {
        "type": "LineString",
        "coordinates": [
          [
            15,
            60
          ],
          [
            102,
            3
          ]
        ]
      },
      "properties": {
        "start_name": "Northern Europe",
        "end_name": "Southeastern Asia",
        "jump_weight": 9.370027247956402,
        "start_lon": 15,
        "start_lat": 60,
        "end_lon": 102,
        "end_lat": 3,
        "bayes_factor": 727.9586533869372
      }
    },
    {
      "type": "Feature",
      "geometry": {
        "type": "LineString",
        "coordinates": [
          [
            -100,
            45
          ],
          [
            55,
            25
          ]
        ]
      },
      "properties": {
        "start_name": "Northern America",
        "end_name": "Western Asia",
        "jump_weight": 13.951771117166212,
        "start_lon": -100,
        "start_lat": 45,
        "end_lon": 55,
        "end_lat": 25,
        "bayes_factor": 107501.41794142839
      }
    },
    {
      "type": "Feature",
      "geometry": {
        "type": "LineString",
        "coordinates": [
          [
            37.2972,
            -1.9577
          ],
          [
            -100,
            45
          ]
        ]
      },
      "properties": {
        "start_name": "Eastern Africa",
        "end_name": "Northern America",
        "jump_weight": 13.61607629427793,
        "start_lon": 37.2972,
        "start_lat": -1.9577,
        "end_lon": -100,
        "end_lat": 45,
        "bayes_factor": 107501.41794142839
      }
    },
    {
      "type": "Feature",
      "geometry": {
        "type": "LineString",
        "coordinates": [
          [
            55,
            25
          ],
          [
            2,
            49
          ]
        ]
      },
      "properties": {
        "start_name": "Western Asia",
        "end_name": "Western Europe",
        "jump_weight": 6.077929155313352,
        "start_lon": 55,
        "start_lat": 25,
        "end_lon": 2,
        "end_lat": 49,
        "bayes_factor": 626.3751858062221
      }
    },
    {
      "type": "Feature",
      "geometry": {
        "type": "LineString",
        "coordinates": [
          [
            -14.4524,
            14.4974
          ],
          [
            -10.9408,
            21.0079
          ]
        ]
      },
      "properties": {
        "start_name": "Senegal",
        "end_name": "Mauritania",
        "jump_weight": 10.987465940054497,
        "start_lon": -14.4524,
        "start_lat": 14.4974,
        "end_lon": -10.9408,
        "end_lat": 21.0079,
        "bayes_factor": 107501.41794142839
      }
    },
    {
      "type": "Feature",
      "geometry": {
        "type": "LineString",
        "coordinates": [
          [
            -14.4524,
            14.4974
          ],
          [
            -9.4295,
            6.4281
          ]
        ]
      },
      "properties": {
        "start_name": "Senegal",
        "end_name": "Liberia",
        "jump_weight": 3.4599455040871936,
        "start_lon": -14.4524,
        "start_lat": 14.4974,
        "end_lon": -9.4295,
        "end_lat": 6.4281,
        "bayes_factor": 727.9586533869372
      }
    },
    {
      "type": "Feature",
      "geometry": {
        "type": "LineString",
        "coordinates": [
          [
            -14.4524,
            14.4974
          ],
          [
            15,
            42
          ]
        ]
      },
      "properties": {
        "start_name": "Senegal",
        "end_name": "Southern Europe",
        "jump_weight": 14.670572207084469,
        "start_lon": -14.4524,
        "start_lat": 14.4974,
        "end_lon": 15,
        "end_lat": 42,
        "bayes_factor": 107501.41794142839
      }
    },
    {
      "type": "Feature",
      "geometry": {
        "type": "LineString",
        "coordinates": [
          [
            37.2972,
            -1.9577
          ],
          [
            80,
            20
          ]
        ]
      },
      "properties": {
        "start_name": "Eastern Africa",
        "end_name": "Southern Asia",
        "jump_weight": 10.129427792915532,
        "start_lon": 37.2972,
        "start_lat": -1.9577,
        "end_lon": 80,
        "end_lat": 20,
        "bayes_factor": 107501.41794142839
      }
    },
    {
      "type": "Feature",
      "geometry": {
        "type": "LineString",
        "coordinates": [
          [
            31,
            30
          ],
          [
            55,
            25
          ]
        ]
      },
      "properties": {
        "start_name": "Northern Africa",
        "end_name": "Western Asia",
        "jump_weight": 3.1623978201634877,
        "start_lon": 31,
        "start_lat": 30,
        "end_lon": 55,
        "end_lat": 25,
        "bayes_factor": 17892.486387631205
      }
    },
    {
      "type": "Feature",
      "geometry": {
        "type": "LineString",
        "coordinates": [
          [
            -5.5471,
            7.54
          ],
          [
            -15.3101,
            13.4432
          ]
        ]
      },
      "properties": {
        "start_name": "Ivory Coast",
        "end_name": "Gambia",
        "jump_weight": 1.687465940054496,
        "start_lon": -5.5471,
        "start_lat": 7.54,
        "end_lon": -15.3101,
        "end_lat": 13.4432,
        "bayes_factor": 170.94349934268922
      }
    }
  ]
}